CCSDS_OMM_VERS = 2.0
CREATION_DATE  = 
ORIGINATOR     = 

OBJECT_NAME    = STARLINK-35865
OBJECT_ID      = 2026-033F
CENTER_NAME    = EARTH
REF_FRAME      = TEME
TIME_SYSTEM    = UTC
MEAN_ELEMENT_THEORY = SGP/SGP4

EPOCH          = 2026-03-05T15:36:03.549312
MEAN_MOTION    = 15.82108896
ECCENTRICITY   = .00025321
INCLINATION    = 42.9972
RA_OF_ASC_NODE = 296.2297
ARG_OF_PERICENTER = 262.9187
MEAN_ANOMALY   = 97.1397

EPHEMERIS_TYPE = 0
CLASSIFICATION_TYPE = U
NORAD_CAT_ID   = 67826
ELEMENT_SET_NO = 999
REV_AT_EPOCH   = 398
BSTAR          = .15216187E-2
MEAN_MOTION_DOT = .333994E-2
MEAN_MOTION_DDOT = 0

CCSDS_OMM_VERS = 2.0
CREATION_DATE  = 
ORIGINATOR     = 

OBJECT_NAME    = STARLINK-36289
OBJECT_ID      = 2026-033G
CENTER_NAME    = EARTH
REF_FRAME      = TEME
TIME_SYSTEM    = UTC
MEAN_ELEMENT_THEORY = SGP/SGP4

EPOCH          = 2026-03-05T15:34:59.188224
MEAN_MOTION    = 15.82337952
ECCENTRICITY   = .00025446
INCLINATION    = 42.9968
RA_OF_ASC_NODE = 296.2234
ARG_OF_PERICENTER = 227.0778
MEAN_ANOMALY   = 132.9880

EPHEMERIS_TYPE = 0
CLASSIFICATION_TYPE = U
NORAD_CAT_ID   = 67827
ELEMENT_SET_NO = 999
REV_AT_EPOCH   = 398
BSTAR          = .25520684E-2
MEAN_MOTION_DOT = .583352E-2
MEAN_MOTION_DDOT = 0

CCSDS_OMM_VERS = 2.0
CREATION_DATE  = 
ORIGINATOR     = 

OBJECT_NAME    = STARLINK-36670
OBJECT_ID      = 2026-033H
CENTER_NAME    = EARTH
REF_FRAME      = TEME
TIME_SYSTEM    = UTC
MEAN_ELEMENT_THEORY = SGP/SGP4

EPOCH          = 2026-03-05T15:33:54.656928
MEAN_MOTION    = 15.82039529
ECCENTRICITY   = .0002003
INCLINATION    = 42.9978
RA_OF_ASC_NODE = 296.2174
ARG_OF_PERICENTER = 255.1738
MEAN_ANOMALY   = 104.8912

EPHEMERIS_TYPE = 0
CLASSIFICATION_TYPE = U
NORAD_CAT_ID   = 67828
ELEMENT_SET_NO = 999
REV_AT_EPOCH   = 398
BSTAR          = .13619463E-2
MEAN_MOTION_DOT = .296617E-2
MEAN_MOTION_DDOT = 0

CCSDS_OMM_VERS = 2.0
CREATION_DATE  = 
ORIGINATOR     = 

OBJECT_NAME    = STARLINK-36144
OBJECT_ID      = 2026-033J
CENTER_NAME    = EARTH
REF_FRAME      = TEME
TIME_SYSTEM    = UTC
MEAN_ELEMENT_THEORY = SGP/SGP4

EPOCH          = 2026-03-05T15:32:49.485408
MEAN_MOTION    = 15.82090821
ECCENTRICITY   = .00021136
INCLINATION    = 42.9973
RA_OF_ASC_NODE = 296.2106
ARG_OF_PERICENTER = 246.6073
MEAN_ANOMALY   = 113.4576

EPHEMERIS_TYPE = 0
CLASSIFICATION_TYPE = U
NORAD_CAT_ID   = 67829
ELEMENT_SET_NO = 999
REV_AT_EPOCH   = 398
BSTAR          = .14737339E-2
MEAN_MOTION_DOT = .322763E-2
MEAN_MOTION_DDOT = 0

CCSDS_OMM_VERS = 2.0
CREATION_DATE  = 
ORIGINATOR     = 

OBJECT_NAME    = STARLINK-36611
OBJECT_ID      = 2026-033K
CENTER_NAME    = EARTH
REF_FRAME      = TEME
TIME_SYSTEM    = UTC
MEAN_ELEMENT_THEORY = SGP/SGP4

EPOCH          = 2026-03-05T15:31:44.783904
MEAN_MOTION    = 15.82067109
ECCENTRICITY   = .00028382
INCLINATION    = 42.9968
RA_OF_ASC_NODE = 296.2035
ARG_OF_PERICENTER = 232.1825
MEAN_ANOMALY   = 127.8790

EPHEMERIS_TYPE = 0
CLASSIFICATION_TYPE = U
NORAD_CAT_ID   = 67830
ELEMENT_SET_NO = 999
REV_AT_EPOCH   = 398
BSTAR          = .11462193E-2
MEAN_MOTION_DOT = .248489E-2
MEAN_MOTION_DDOT = 0

CCSDS_OMM_VERS = 2.0
CREATION_DATE  = 
ORIGINATOR     = 

OBJECT_NAME    = STARLINK-36661
OBJECT_ID      = 2026-033L
CENTER_NAME    = EARTH
REF_FRAME      = TEME
TIME_SYSTEM    = UTC
MEAN_ELEMENT_THEORY = SGP/SGP4

EPOCH          = 2026-03-05T15:30:40.428000
MEAN_MOTION    = 15.82036923
ECCENTRICITY   = .00021388
INCLINATION    = 42.9972
RA_OF_ASC_NODE = 296.1987
ARG_OF_PERICENTER = 255.5943
MEAN_ANOMALY   = 104.4691

EPHEMERIS_TYPE = 0
CLASSIFICATION_TYPE = U
NORAD_CAT_ID   = 67831
ELEMENT_SET_NO = 999
REV_AT_EPOCH   = 398
BSTAR          = .12589223E-2
MEAN_MOTION_DOT = .273364E-2
MEAN_MOTION_DDOT = 0

CCSDS_OMM_VERS = 2.0
CREATION_DATE  = 
ORIGINATOR     = 

OBJECT_NAME    = STARLINK-36662
OBJECT_ID      = 2026-033M
CENTER_NAME    = EARTH
REF_FRAME      = TEME
TIME_SYSTEM    = UTC
MEAN_ELEMENT_THEORY = SGP/SGP4

EPOCH          = 2026-03-05T15:40:53.719392
MEAN_MOTION    = 15.84498960
ECCENTRICITY   = .00019839
INCLINATION    = 42.9952
RA_OF_ASC_NODE = 295.3475
ARG_OF_PERICENTER = 237.0355
MEAN_ANOMALY   = 123.0327

EPHEMERIS_TYPE = 0
CLASSIFICATION_TYPE = U
NORAD_CAT_ID   = 67832
ELEMENT_SET_NO = 999
REV_AT_EPOCH   = 399
BSTAR          = .17937081E-2
MEAN_MOTION_DOT = .446748E-2
MEAN_MOTION_DDOT = 0

CCSDS_OMM_VERS = 2.0
CREATION_DATE  = 
ORIGINATOR     = 

OBJECT_NAME    = STARLINK-36659
OBJECT_ID      = 2026-033N
CENTER_NAME    = EARTH
REF_FRAME      = TEME
TIME_SYSTEM    = UTC
MEAN_ELEMENT_THEORY = SGP/SGP4

EPOCH          = 2026-03-05T15:29:35.375712
MEAN_MOTION    = 15.82096555
ECCENTRICITY   = .00013969
INCLINATION    = 42.9969
RA_OF_ASC_NODE = 296.1930
ARG_OF_PERICENTER = 299.5586
MEAN_ANOMALY   = 60.5146

EPHEMERIS_TYPE = 0
CLASSIFICATION_TYPE = U
NORAD_CAT_ID   = 67833
ELEMENT_SET_NO = 999
REV_AT_EPOCH   = 398
BSTAR          = .15976949E-2
MEAN_MOTION_DOT = .351218E-2
MEAN_MOTION_DDOT = 0

CCSDS_OMM_VERS = 2.0
CREATION_DATE  = 
ORIGINATOR     = 

OBJECT_NAME    = STARLINK-36655
OBJECT_ID      = 2026-033P
CENTER_NAME    = EARTH
REF_FRAME      = TEME
TIME_SYSTEM    = UTC
MEAN_ELEMENT_THEORY = SGP/SGP4

EPOCH          = 2026-03-05T13:57:35.793792
MEAN_MOTION    = 15.82051657
ECCENTRICITY   = .00022916
INCLINATION    = 42.9972
RA_OF_ASC_NODE = 296.5730
ARG_OF_PERICENTER = 262.4725
MEAN_ANOMALY   = 97.5886

EPHEMERIS_TYPE = 0
CLASSIFICATION_TYPE = U
NORAD_CAT_ID   = 67834
ELEMENT_SET_NO = 999
REV_AT_EPOCH   = 397
BSTAR          = .15289345E-2
MEAN_MOTION_DOT = .334731E-2
MEAN_MOTION_DDOT = 0

CCSDS_OMM_VERS = 2.0
CREATION_DATE  = 
ORIGINATOR     = 

OBJECT_NAME    = STARLINK-36657
OBJECT_ID      = 2026-033Q
CENTER_NAME    = EARTH
REF_FRAME      = TEME
TIME_SYSTEM    = UTC
MEAN_ELEMENT_THEORY = SGP/SGP4

EPOCH          = 2026-03-05T15:27:25.930368
MEAN_MOTION    = 15.82073741
ECCENTRICITY   = .00022418
INCLINATION    = 42.9971
RA_OF_ASC_NODE = 296.1801
ARG_OF_PERICENTER = 243.6220
MEAN_ANOMALY   = 116.4421

EPHEMERIS_TYPE = 0
CLASSIFICATION_TYPE = U
NORAD_CAT_ID   = 67835
ELEMENT_SET_NO = 999
REV_AT_EPOCH   = 398
BSTAR          = .12066829E-2
MEAN_MOTION_DOT = .262107E-2
MEAN_MOTION_DDOT = 0

CCSDS_OMM_VERS = 2.0
CREATION_DATE  = 
ORIGINATOR     = 

OBJECT_NAME    = STARLINK-36650
OBJECT_ID      = 2026-033R
CENTER_NAME    = EARTH
REF_FRAME      = TEME
TIME_SYSTEM    = UTC
MEAN_ELEMENT_THEORY = SGP/SGP4

EPOCH          = 2026-03-05T15:26:21.332544
MEAN_MOTION    = 15.82079954
ECCENTRICITY   = .00022766
INCLINATION    = 42.9968
RA_OF_ASC_NODE = 296.1745
ARG_OF_PERICENTER = 242.3913
MEAN_ANOMALY   = 117.6728

EPHEMERIS_TYPE = 0
CLASSIFICATION_TYPE = U
NORAD_CAT_ID   = 67836
ELEMENT_SET_NO = 999
REV_AT_EPOCH   = 398
BSTAR          = .15479267E-2
MEAN_MOTION_DOT = .339534E-2
MEAN_MOTION_DDOT = 0

CCSDS_OMM_VERS = 2.0
CREATION_DATE  = 
ORIGINATOR     = 

OBJECT_NAME    = STARLINK-36649
OBJECT_ID      = 2026-033S
CENTER_NAME    = EARTH
REF_FRAME      = TEME
TIME_SYSTEM    = UTC
MEAN_ELEMENT_THEORY = SGP/SGP4

EPOCH          = 2026-03-05T15:25:16.543776
MEAN_MOTION    = 15.82046753
ECCENTRICITY   = .0002208
INCLINATION    = 42.9970
RA_OF_ASC_NODE = 296.1681
ARG_OF_PERICENTER = 256.4754
MEAN_ANOMALY   = 103.5872

EPHEMERIS_TYPE = 0
CLASSIFICATION_TYPE = U
NORAD_CAT_ID   = 67837
ELEMENT_SET_NO = 999
REV_AT_EPOCH   = 398
BSTAR          = .12985368E-2
MEAN_MOTION_DOT = .282411E-2
MEAN_MOTION_DDOT = 0

