STARLINK-35865          
1 67826U 26033F   26064.65004108  .00333994  00000+0  15216-2 0  9992
2 67826  42.9972 296.2297 0002532 262.9187  97.1397 15.82108896  3982
STARLINK-36289          
1 67827U 26033G   26064.64929616  .00583352  00000+0  25521-2 0  9997
2 67827  42.9968 296.2234 0002544 227.0778 132.9880 15.82337952  3982
STARLINK-36670          
1 67828U 26033H   26064.64854927  .00296617  00000+0  13619-2 0  9990
2 67828  42.9978 296.2174 0002003 255.1738 104.8912 15.82039529  3988
STARLINK-36144          
1 67829U 26033J   26064.64779497  .00322763  00000+0  14737-2 0  9993
2 67829  42.9973 296.2106 0002113 246.6073 113.4576 15.82090821  3982
STARLINK-36611          
1 67830U 26033K   26064.64704611  .00248489  00000+0  11462-2 0  9995
2 67830  42.9968 296.2035 0002838 232.1825 127.8790 15.82067109  3988
STARLINK-36661          
1 67831U 26033L   26064.64630125  .00273364  00000+0  12589-2 0  9995
2 67831  42.9972 296.1987 0002138 255.5943 104.4691 15.82036923  3983
STARLINK-36662          
1 67832U 26033M   26064.65339953  .00446748  00000+0  17937-2 0  9992
2 67832  42.9952 295.3475 0001983 237.0355 123.0327 15.84498960  3993
STARLINK-36659          
1 67833U 26033N   26064.64554833  .00351218  00000+0  15977-2 0  9997
2 67833  42.9969 296.1930 0001396 299.5586  60.5146 15.82096555  3989
STARLINK-36655          
1 67834U 26033P   26064.58166428  .00334731  00000+0  15289-2 0  9997
2 67834  42.9972 296.5730 0002291 262.4725  97.5886 15.82051657  3979
STARLINK-36657          
1 67835U 26033Q   26064.64405012  .00262107  00000+0  12067-2 0  9998
2 67835  42.9971 296.1801 0002241 243.6220 116.4421 15.82073741  3985
STARLINK-36650          
1 67836U 26033R   26064.64330246  .00339534  00000+0  15479-2 0  9994
2 67836  42.9968 296.1745 0002276 242.3913 117.6728 15.82079954  3987
STARLINK-36649          
1 67837U 26033S   26064.64255259  .00282411  00000+0  12985-2 0  9995
2 67837  42.9970 296.1681 0002208 256.4754 103.5872 15.82046753  3989
